NORAD_CAT_ID,OBJECT_NAME,OBJECT_TYPE,EPOCH,MEAN_MOTION,ECCENTRICITY,INCLINATION,RA_OF_ASC_NODE,ARG_OF_PERICENTER,MEAN_ANOMALY,BSTAR,MEAN_MOTION_DOT,MEAN_MOTION_DDOT,TLE_LINE0,TLE_LINE1,TLE_LINE2,SEMIMAJOR_AXIS,PERIOD,APOGEE,PERIGEE,DECAYED
52457.0,STARLINK-3899,PAYLOAD,2023-12-17 14:19:10,15.08835607,0.0001201,53.2177,119.2291,114.0703,246.0414,5.5355e-05,5.93e-06,0.0,0 STARLINK-3899,1 52457U 22049G   23351.59664739  .00000593  00000-0  55355-4 0  9997,2 52457  53.2177 119.2291 0001201 114.0703 246.0414 15.08835607 89365,6917.894,95.438,540.59,538.928,0.0
52457.0,STARLINK-3899,PAYLOAD,2023-12-18 14:09:56,15.08854057,0.0001067,53.2168,114.7614,86.5264,273.585,7.1631e-05,8.53e-06,0.0,0 STARLINK-3899,1 52457U 22049G   23352.59023467  .00000853  00000-0  71631-4 0  9999,2 52457  53.2168 114.7614 0001067  86.5264 273.5850 15.08854057 89515,6917.837,95.437,540.441,538.964,0.0
52457.0,STARLINK-3899,PAYLOAD,2023-12-18 15:45:19,15.08853313,0.0001411,53.2175,114.4682,54.7987,305.3137,6.5574e-05,7.56e-06,0.0,0 STARLINK-3899,1 52457U 22049G   23352.65647610  .00000756  00000-0  65574-4 0  9999,2 52457  53.2175 114.4682 0001411  54.7987 305.3137 15.08853313 89681,6917.84,95.437,540.681,538.729,0.0
52457.0,STARLINK-3899,PAYLOAD,2023-12-19 14:00:43,15.08844041,0.0001092,53.217,110.3045,73.9099,286.2013,4.5335e-05,4.34e-06,0.0,0 STARLINK-3899,1 52457U 22049G   23353.58384178  .00000434  00000-0  45335-4 0  9995,2 52457  53.2170 110.3045 0001092  73.9099 286.2013 15.08844041 89662,6917.868,95.437,540.488,538.978,0.0
52457.0,STARLINK-3899,PAYLOAD,2023-12-19 15:36:06,15.08846461,0.0001169,53.2177,110.0092,74.878,285.2341,7.4407e-05,8.97e-06,0.0,0 STARLINK-3899,1 52457U 22049G   23353.65007990  .00000897  00000-0  74407-4 0  9992,2 52457  53.2177 110.0092 0001169  74.8780 285.2341 15.08846461 89830,6917.861,95.437,540.534,538.917,0.0
52457.0,STARLINK-3899,PAYLOAD,2023-12-20 13:51:31,15.08836512,0.000134,53.2171,105.8474,65.6389,294.4743,-8.6977e-05,-1.672e-05,0.0,0 STARLINK-3899,1 52457U 22049G   23354.57745343 -.00001672  00000-0 -86977-4 0  9994,2 52457  53.2171 105.8474 0001340  65.6389 294.4743 15.08836512 89816,6917.891,95.438,540.683,538.829,0.0
52457.0,STARLINK-3899,PAYLOAD,2023-12-20 15:26:54,15.08841232,0.0001294,53.2173,105.5531,60.0132,300.0988,-4.055e-05,-9.33e-06,0.0,0 STARLINK-3899,1 52457U 22049G   23354.64369010 -.00000933  00000-0 -40550-4 0  9991,2 52457  53.2173 105.5531 0001294  60.0132 300.0988 15.08841232 89980,6917.877,95.437,540.637,538.846,0.0
52457.0,STARLINK-3899,PAYLOAD,2023-12-21 13:42:18,15.08843869,0.0001968,53.216,101.3941,47.8934,312.2225,0.00020289,2.943e-05,0.0,0 STARLINK-3899,1 52457U 22049G   23355.57105135  .00002943  00000-0  20289-3 0  9997,2 52457  53.2160 101.3941 0001968  47.8934 312.2225 15.08843869 89961,6917.869,95.437,541.095,538.372,0.0
52457.0,STARLINK-3899,PAYLOAD,2023-12-22 11:57:42,15.08847615,0.0001735,53.2154,97.2378,125.9631,234.1523,8.0104e-05,9.87e-06,0.0,0 STARLINK-3899,1 52457U 22049G   23356.49840630  .00000987  00000-0  80104-4 0  9994,2 52457  53.2154  97.2378 0001735 125.9631 234.1523 15.08847615 90266,6917.857,95.437,540.922,538.522,0.0
52457.0,STARLINK-3899,PAYLOAD,2023-12-22 13:33:05,15.08846989,0.0001337,53.216,96.935,68.1287,291.9847,0.0001834,2.633e-05,0.0,0 STARLINK-3899,1 52457U 22049G   23356.56464883  .00002633  00000-0  18340-3 0  9996,2 52457  53.2160  96.9350 0001337  68.1287 291.9847 15.08846989 90119,6917.859,95.437,540.649,538.799,0.0
52457.0,STARLINK-3899,PAYLOAD,2023-12-23 11:48:29,15.08838407,0.0001386,53.2163,92.762,93.2148,266.9003,5.2088e-06,-2.05e-06,0.0,0 STARLINK-3899,1 52457U 22049G   23357.49201138 -.00000205  00000-0  52088-5 0  9994,2 52457  53.2163  92.7620 0001386  93.2148 266.9003 15.08838407 90410,6917.885,95.438,540.709,538.791,0.0
52457.0,STARLINK-3899,PAYLOAD,2023-12-24 11:39:18,15.08834099,0.0001476,53.2163,88.2984,77.9954,282.1203,5.9412e-05,6.58e-06,0.0,0 STARLINK-3899,1 52457U 22049G   23358.48562812  .00000658  00000-0  59412-4 0  9991,2 52457  53.2163  88.2984 0001476  77.9954 282.1203 15.08834099 90568,6917.898,95.438,540.785,538.742,0.0
52457.0,STARLINK-3899,PAYLOAD,2023-12-25 11:30:04,15.08862269,0.0001382,53.2162,83.8389,97.0847,263.0302,0.00054066,8.332e-05,0.0,0 STARLINK-3899,1 52457U 22049G   23359.47921392  .00008332  00000-0  54066-3 0  9999,2 52457  53.2162  83.8389 0001382  97.0847 263.0302 15.08862269 90712,6917.812,95.436,540.633,538.721,0.0
52457.0,STARLINK-3899,PAYLOAD,2023-12-26 11:20:51,15.08850607,0.0001501,53.2167,79.3754,140.9245,219.1855,8.7123e-05,1.099e-05,0.0,0 STARLINK-3899,1 52457U 22049G   23360.47281746  .00001099  00000-0  87123-4 0  9997,2 52457  53.2167  79.3754 0001501 140.9245 219.1855 15.08850607 90860,6917.848,95.437,540.751,538.675,0.0
52457.0,STARLINK-3899,PAYLOAD,2023-12-27 12:47:01,15.08855875,0.000134,53.2168,74.6225,88.6654,271.4492,-5.123e-05,-1.104e-05,0.0,0 STARLINK-3899,1 52457U 22049G   23361.53265257 -.00001104  00000-0 -51230-4 0  9993,2 52457  53.2168  74.6225 0001340  88.6654 271.4492 15.08855875 90865,6917.832,95.437,540.624,538.77,0.0
52457.0,STARLINK-3899,PAYLOAD,2023-12-28 11:02:25,15.08839473,0.0001413,53.2173,70.4602,83.4675,276.6478,9.9914e-05,1.303e-05,0.0,0 STARLINK-3899,1 52457U 22049G   23362.46002155  .00001303  00000-0  99914-4 0  9992,2 52457  53.2173  70.4602 0001413  83.4675 276.6478 15.08839473 91162,6917.882,95.438,540.724,538.77,0.0
52457.0,STARLINK-3899,PAYLOAD,2023-12-28 14:13:11,15.08848809,0.0001352,53.218,69.8625,96.9396,263.175,7.1281e-05,8.47e-06,0.0,0 STARLINK-3899,1 52457U 22049G   23362.59249390  .00000847  00000-0  71281-4 0  9999,2 52457  53.2180  69.8625 0001352  96.9396 263.1750 15.08848809 91020,6917.853,95.437,540.654,538.783,0.0
52457.0,STARLINK-3899,PAYLOAD,2023-12-29 10:53:12,15.08849537,0.00016,53.2185,65.9919,117.7576,242.3579,-6.197e-05,-1.274e-05,0.0,0 STARLINK-3899,1 52457U 22049G   23363.45361714 -.00001274  00000-0 -61970-4 0  9991,2 52457  53.2185  65.9919 0001600 117.7576 242.3579 15.08849537 91315,6917.851,95.437,540.823,538.609,0.0
52457.0,STARLINK-3899,PAYLOAD,2023-12-30 10:43:59,15.08852337,0.0001474,53.2179,61.5412,93.8712,266.2448,9.8812e-06,-1.31e-06,0.0,0 STARLINK-3899,1 52457U 22049G   23364.44721502 -.00000131  00000-0  98812-5 0  9992,2 52457  53.2179  61.5412 0001474  93.8712 266.2448 15.08852337 91304,6917.843,95.437,540.727,538.688,0.0
52457.0,STARLINK-3899,PAYLOAD,2023-12-31 04:13:14,15.08836373,0.0001628,53.2177,58.272,94.5743,265.5435,4.1353e-05,3.7e-06,0.0,0 STARLINK-3899,1 52457U 22049G   23365.17586470  .00000370  00000-0  41353-4 0  9997,2 52457  53.2177  58.2720 0001628  94.5743 265.5435 15.08836373 91579,6917.891,95.438,540.883,538.63,0.0
52457.0,STARLINK-3899,PAYLOAD,2023-12-31 08:59:24,15.0883349,0.0001571,53.218,57.3788,99.6994,260.4176,2.9185e-06,-2.42e-06,0.0,0 STARLINK-3899,1 52457U 22049G   23365.37458777 -.00000242  00000-0  29185-5 0  9996,2 52457  53.2180  57.3788 0001571  99.6994 260.4176 15.08833490 91447,6917.9,95.438,540.852,538.678,0.0
52457.0,STARLINK-3899,PAYLOAD,2024-01-01 08:50:11,15.08838239,0.0001594,53.2184,52.9187,101.1111,259.0061,3.5415e-05,2.76e-06,0.0,0 STARLINK-3899,1 52457U 22049G   24001.36818534  .00000276  00000-0  35415-4 0  9992,2 52457  53.2184  52.9187 0001594 101.1111 259.0061 15.08838239 91757,6917.886,95.438,540.853,538.648,0.0
52457.0,STARLINK-3899,PAYLOAD,2024-01-02 03:54:50,15.08816545,0.0001439,53.2176,49.3468,104.1043,256.011,-3.8947e-05,-9.07e-06,0.0,0 STARLINK-3899,1 52457U 22049G   24002.16308793 -.00000907  00000-0 -38947-4 0  9998,2 52457  53.2176  49.3468 0001439 104.1043 256.0110 15.08816545 91876,6917.952,95.439,540.813,538.822,0.0
52457.0,STARLINK-3899,PAYLOAD,2024-01-02 10:16:23,15.08825013,0.000137,53.2177,48.1563,99.2188,260.8959,3.2354e-05,2.27e-06,0.0,0 STARLINK-3899,1 52457U 22049G   24002.42804475  .00000227  00000-0  32354-4 0  9994,2 52457  53.2177  48.1563 0001370  99.2188 260.8959 15.08825013 91917,6917.926,95.439,540.739,538.843,0.0
52457.0,STARLINK-3899,PAYLOAD,2024-01-03 11:42:32,15.08838221,0.0001474,53.2167,43.3976,92.2705,267.8456,0.00074621,0.00011607,0.0,0 STARLINK-3899,1 52457U 22049G   24003.48788112  .00011607  00000-0  74621-3 0  9996,2 52457  53.2167  43.3976 0001474  92.2705 267.8456 15.08838221 92076,6917.886,95.438,540.771,538.731,0.0
52457.0,STARLINK-3899,PAYLOAD,2024-01-04 09:57:56,15.08850867,0.0001364,53.2174,39.2334,84.4755,275.6393,0.0002603,3.858e-05,0.0,0 STARLINK-3899,1 52457U 22049G   24004.41523238  .00003858  00000-0  26030-3 0  9996,2 52457  53.2174  39.2334 0001364  84.4755 275.6393 15.08850867 92057,6917.847,95.437,540.656,538.769,0.0
52457.0,STARLINK-3899,PAYLOAD,2024-01-05 11:24:05,15.08850794,0.0001531,53.2177,34.4762,78.8212,281.2952,1.9421e-05,2.1e-07,0.0,0 STARLINK-3899,1 52457U 22049G   24005.47506826  .00000021  00000-0  19421-4 0  9993,2 52457  53.2177  34.4762 0001531  78.8212 281.2952 15.08850794 92371,6917.847,95.437,540.772,538.653,0.0
52457.0,STARLINK-3899,PAYLOAD,2024-01-06 08:04:06,15.08854694,0.0001486,53.2184,30.6108,111.4366,248.6785,9.66e-05,1.25e-05,0.0,0 STARLINK-3899,1 52457U 22049G   24006.33618227  .00001250  00000-0  96600-4 0  9997,2 52457  53.2184  30.6108 0001486 111.4366 248.6785 15.08854694 92345,6917.835,95.437,540.728,538.672,0.0
52457.0,STARLINK-3899,PAYLOAD,2024-01-07 04:44:07,15.08841044,0.0001653,53.2184,26.7467,103.2975,256.8202,8.2301e-05,1.022e-05,0.0,0 STARLINK-3899,1 52457U 22049G   24007.19730928  .00001022  00000-0  82301-4 0  9995,2 52457  53.2184  26.7467 0001653 103.2975 256.8202 15.08841044 92632,6917.877,95.437,540.886,538.599,0.0
52457.0,STARLINK-3899,PAYLOAD,2024-01-07 11:05:40,15.08842849,0.0001587,53.2179,25.5568,97.0797,263.0376,0.00010941,1.454e-05,0.0,0 STARLINK-3899,1 52457U 22049G   24007.46226856  .00001454  00000-0  10941-3 0  9994,2 52457  53.2179  25.5568 0001587  97.0797 263.0376 15.08842849 92516,6917.872,95.437,540.835,538.639,0.0
